[{"OBJECT_NAME":"GOES 18","OBJECT_ID":"2022-021A","EPOCH":"2026-03-05T19:38:22.378848","MEAN_MOTION":1.00272735,"ECCENTRICITY":6.92e-5,"INCLINATION":0.0333,"RA_OF_ASC_NODE":75.5863,"ARG_OF_PERICENTER":327.0556,"MEAN_ANOMALY":278.4855,"EPHEMERIS_TYPE":0,"CLASSIFICATION_TYPE":"U","NORAD_CAT_ID":51850,"ELEMENT_SET_NO":999,"REV_AT_EPOCH":555,"BSTAR":0,"MEAN_MOTION_DOT":9.0e-7,"MEAN_MOTION_DDOT":0},{"OBJECT_NAME":"GOES 19","OBJECT_ID":"2024-119A","EPOCH":"2026-03-05T18:46:14.210688","MEAN_MOTION":1.00271654,"ECCENTRICITY":0.0001053,"INCLINATION":0.0118,"RA_OF_ASC_NODE":336.1485,"ARG_OF_PERICENTER":50.3792,"MEAN_ANOMALY":343.3402,"EPHEMERIS_TYPE":0,"CLASSIFICATION_TYPE":"U","NORAD_CAT_ID":60133,"ELEMENT_SET_NO":999,"REV_AT_EPOCH":592,"BSTAR":0,"MEAN_MOTION_DOT":-2.55e-6,"MEAN_MOTION_DDOT":0}]
