GOES 18                 
1 51850U 22021A   26064.81831457  .00000090  00000+0  00000+0 0  9998
2 51850   0.0333  75.5863 0000692 327.0556 278.4855  1.00272735  5550
GOES 19                 
1 60133U 24119A   26064.78210892 -.00000255  00000+0  00000+0 0  9996
2 60133   0.0118 336.1485 0001053  50.3792 343.3402  1.00271654  5921
